{
  "type": "FeatureCollection",
  "features": [
    {
      "type": "Feature",
      "properties": {
        "norad_id": 40938,
        "name": "BEIDOU-3S IGSO-2S (C56)",
        "group": "beidou",
        "lat": -41.85558727498677,
        "lon": 130.81257183117788,
        "alt_km": 35635.5073104926,
        "timestamp": "2025-12-10T21:43:22.353125+00:00",
        "meta_object_name": "BEIDOU-3S IGSO-2S (C56)",
        "meta_object_id": "2015-053A",
        "meta_epoch": "2025-12-09T17:40:38.610336",
        "meta_mean_motion": 1.00270089,
        "meta_eccentricity": 0.00610607,
        "meta_inclination": 49.5164,
        "meta_ra_of_asc_node": 261.0407,
        "meta_arg_of_pericenter": 188.3574,
        "meta_mean_anomaly": 350.535,
        "meta_ephemeris_type": 0,
        "meta_classification_type": "U",
        "meta_norad_cat_id": 40938,
        "meta_element_set_no": 999,
        "meta_rev_at_epoch": 3745,
        "meta_bstar": 0,
        "meta_mean_motion_dot": -1.49e-06,
        "meta_mean_motion_ddot": 0,
        "tle_line1": "1 40938U 15053A   25343.73655799 -.00000149  00000+0  00000+0 0  9999",
        "tle_line2": "2 40938  49.5164 261.0407 0061060 188.3574 350.5350  1.00270089 37451"
      },
      "geometry": {
        "type": "Point",
        "coordinates": [
          130.81257183117788,
          -41.85558727498677
        ]
      }
    },
    {
      "type": "Feature",
      "properties": {
        "norad_id": 41434,
        "name": "BEIDOU-2 IGSO-6 (C13)",
        "group": "beidou",
        "lat": 59.00550950689163,
        "lon": 145.79598907304754,
        "alt_km": 35937.47145343091,
        "timestamp": "2025-12-10T21:43:22.353137+00:00",
        "meta_object_name": "BEIDOU-2 IGSO-6 (C13)",
        "meta_object_id": "2016-021A",
        "meta_epoch": "2025-12-03T15:53:57.382080",
        "meta_mean_motion": 1.00293531,
        "meta_eccentricity": 0.00596341,
        "meta_inclination": 59.9536,
        "meta_ra_of_asc_node": 39.991,
        "meta_arg_of_pericenter": 228.541,
        "meta_mean_anomaly": 135.1173,
        "meta_ephemeris_type": 0,
        "meta_classification_type": "U",
        "meta_norad_cat_id": 41434,
        "meta_element_set_no": 999,
        "meta_rev_at_epoch": 3552,
        "meta_bstar": 0,
        "meta_mean_motion_dot": -1.61e-06,
        "meta_mean_motion_ddot": 0,
        "tle_line1": "1 41434U 16021A   25337.66246970 -.00000161  00000+0  00000+0 0  9993",
        "tle_line2": "2 41434  59.9536  39.9910 0059634 228.5410 135.1173  1.00293531 35525"
      },
      "geometry": {
        "type": "Point",
        "coordinates": [
          145.79598907304754,
          59.00550950689163
        ]
      }
    },
    {
      "type": "Feature",
      "properties": {
        "norad_id": 41586,
        "name": "BEIDOU-2 G7 (C03)",
        "group": "beidou",
        "lat": 1.7543637236876979,
        "lon": 156.21177426002774,
        "alt_km": 35786.06538627534,
        "timestamp": "2025-12-10T21:43:22.353150+00:00",
        "meta_object_name": "BEIDOU-2 G7 (C03)",
        "meta_object_id": "2016-037A",
        "meta_epoch": "2025-12-10T02:04:58.987776",
        "meta_mean_motion": 1.00268277,
        "meta_eccentricity": 0.00043575,
        "meta_inclination": 1.7507,
        "meta_ra_of_asc_node": 67.7099,
        "meta_arg_of_pericenter": 1.1647,
        "meta_mean_anomaly": 151.896,
        "meta_ephemeris_type": 0,
        "meta_classification_type": "U",
        "meta_norad_cat_id": 41586,
        "meta_element_set_no": 999,
        "meta_rev_at_epoch": 499,
        "meta_bstar": 0,
        "meta_mean_motion_dot": -3.5e-06,
        "meta_mean_motion_ddot": 0,
        "tle_line1": "1 41586U 16037A   25344.08679384 -.00000350  00000+0  00000+0 0  9991",
        "tle_line2": "2 41586   1.7507  67.7099 0004357   1.1647 151.8960  1.00268277  4997"
      },
      "geometry": {
        "type": "Point",
        "coordinates": [
          156.21177426002774,
          1.7543637236876979
        ]
      }
    },
    {
      "type": "Feature",
      "properties": {
        "norad_id": 43001,
        "name": "BEIDOU-3 M1 (C19)",
        "group": "beidou",
        "lat": 14.0774634191505,
        "lon": -120.23533919394077,
        "alt_km": 21546.04275629668,
        "timestamp": "2025-12-10T21:43:22.353161+00:00",
        "meta_object_name": "BEIDOU-3 M1 (C19)",
        "meta_object_id": "2017-069A",
        "meta_epoch": "2025-12-10T02:59:44.287296",
        "meta_mean_motion": 1.86230979,
        "meta_eccentricity": 0.00090512,
        "meta_inclination": 56.5252,
        "meta_ra_of_asc_node": 69.3201,
        "meta_arg_of_pericenter": 303.7839,
        "meta_mean_anomaly": 56.1523,
        "meta_ephemeris_type": 0,
        "meta_classification_type": "U",
        "meta_norad_cat_id": 43001,
        "meta_element_set_no": 999,
        "meta_rev_at_epoch": 5508,
        "meta_bstar": 0,
        "meta_mean_motion_dot": -5.2e-07,
        "meta_mean_motion_ddot": 0,
        "tle_line1": "1 43001U 17069A   25344.12481814 -.00000052  00000+0  00000+0 0  9994",
        "tle_line2": "2 43001  56.5252  69.3201 0009051 303.7839  56.1523  1.86230979 55089"
      },
      "geometry": {
        "type": "Point",
        "coordinates": [
          -120.23533919394077,
          14.0774634191505
        ]
      }
    },
    {
      "type": "Feature",
      "properties": {
        "norad_id": 43002,
        "name": "BEIDOU-3 M2 (C20)",
        "group": "beidou",
        "lat": -20.188843839758338,
        "lon": -96.5986725007184,
        "alt_km": 21541.70607343794,
        "timestamp": "2025-12-10T21:43:22.353172+00:00",
        "meta_object_name": "BEIDOU-3 M2 (C20)",
        "meta_object_id": "2017-069B",
        "meta_epoch": "2025-12-09T12:37:45.819264",
        "meta_mean_motion": 1.8623055,
        "meta_eccentricity": 0.0006254,
        "meta_inclination": 56.5238,
        "meta_ra_of_asc_node": 69.3764,
        "meta_arg_of_pericenter": 332.6094,
        "meta_mean_anomaly": 27.38,
        "meta_ephemeris_type": 0,
        "meta_classification_type": "U",
        "meta_norad_cat_id": 43002,
        "meta_element_set_no": 999,
        "meta_rev_at_epoch": 5506,
        "meta_bstar": 0,
        "meta_mean_motion_dot": -4.8e-07,
        "meta_mean_motion_ddot": 0,
        "tle_line1": "1 43002U 17069B   25343.52622476 -.00000048  00000+0  00000+0 0  9994",
        "tle_line2": "2 43002  56.5238  69.3764 0006254 332.6094  27.3800  1.86230550 55065"
      },
      "geometry": {
        "type": "Point",
        "coordinates": [
          -96.5986725007184,
          -20.188843839758338
        ]
      }
    },
    {
      "type": "Feature",
      "properties": {
        "norad_id": 43107,
        "name": "BEIDOU-3 M7 (C27)",
        "group": "beidou",
        "lat": 13.572048092656951,
        "lon": -41.222853646131334,
        "alt_km": 21522.13322239583,
        "timestamp": "2025-12-10T21:43:22.353184+00:00",
        "meta_object_name": "BEIDOU-3 M7 (C27)",
        "meta_object_id": "2018-003A",
        "meta_epoch": "2025-12-10T08:14:11.609952",
        "meta_mean_motion": 1.86232173,
        "meta_eccentricity": 0.00026083,
        "meta_inclination": 54.4988,
        "meta_ra_of_asc_node": 308.8983,
        "meta_arg_of_pericenter": 70.7786,
        "meta_mean_anomaly": 289.2405,
        "meta_ephemeris_type": 0,
        "meta_classification_type": "U",
        "meta_norad_cat_id": 43107,
        "meta_element_set_no": 999,
        "meta_rev_at_epoch": 5383,
        "meta_bstar": 0,
        "meta_mean_motion_dot": -8.2e-07,
        "meta_mean_motion_ddot": 0,
        "tle_line1": "1 43107U 18003A   25344.34318993 -.00000082  00000+0  00000+0 0  9994",
        "tle_line2": "2 43107  54.4988 308.8983 0002608  70.7786 289.2405  1.86232173 53837"
      },
      "geometry": {
        "type": "Point",
        "coordinates": [
          -41.222853646131334,
          13.572048092656951
        ]
      }
    },
    {
      "type": "Feature",
      "properties": {
        "norad_id": 43108,
        "name": "BEIDOU-3 M8 (C28)",
        "group": "beidou",
        "lat": 40.992682774601654,
        "lon": -12.833538920791211,
        "alt_km": 21533.399212926026,
        "timestamp": "2025-12-10T21:43:22.353195+00:00",
        "meta_object_name": "BEIDOU-3 M8 (C28)",
        "meta_object_id": "2018-003B",
        "meta_epoch": "2025-12-10T06:54:49.457952",
        "meta_mean_motion": 1.8623067,
        "meta_eccentricity": 0.00048133,
        "meta_inclination": 54.4919,
        "meta_ra_of_asc_node": 308.8832,
        "meta_arg_of_pericenter": 273.6231,
        "meta_mean_anomaly": 86.3126,
        "meta_ephemeris_type": 0,
        "meta_classification_type": "U",
        "meta_norad_cat_id": 43108,
        "meta_element_set_no": 999,
        "meta_rev_at_epoch": 5384,
        "meta_bstar": 0,
        "meta_mean_motion_dot": -8.2e-07,
        "meta_mean_motion_ddot": 0,
        "tle_line1": "1 43108U 18003B   25344.28807243 -.00000082  00000+0  00000+0 0  9999",
        "tle_line2": "2 43108  54.4919 308.8832 0004813 273.6231  86.3126  1.86230670 53841"
      },
      "geometry": {
        "type": "Point",
        "coordinates": [
          -12.833538920791211,
          40.992682774601654
        ]
      }
    }
  ]
}